{
  "type": "FeatureCollection",
  "features": [
    {
      "type": "Feature",
      "properties": {
        "norad_id": 66631,
        "name": "STARLINK-35965",
        "group": "last-30-days",
        "lat": -2.095130291149859,
        "lon": -135.18041686327706,
        "alt_km": 328.1582700417857,
        "timestamp": "2025-12-04T17:48:38.964825+00:00",
        "meta_object_name": "STARLINK-35965",
        "meta_object_id": "2025-271Q",
        "meta_epoch": "2025-12-04T07:12:21.035808",
        "meta_mean_motion": 15.81776671,
        "meta_eccentricity": 0.00011348,
        "meta_inclination": 53.1568,
        "meta_ra_of_asc_node": 228.6092,
        "meta_arg_of_pericenter": 128.5518,
        "meta_mean_anomaly": 231.5607,
        "meta_ephemeris_type": 0,
        "meta_classification_type": "U",
        "meta_norad_cat_id": 66631,
        "meta_element_set_no": 999,
        "meta_rev_at_epoch": 288,
        "meta_bstar": -0.0020617817,
        "meta_mean_motion_dot": -0.004058,
        "meta_mean_motion_ddot": 0,
        "tle_line1": "1 66631U 25271Q   25338.30024347 -.00405800  00000+0 -20618-2 0  9990",
        "tle_line2": "2 66631  53.1568 228.6092 0001134 128.5518 231.5607 15.81776671  2881"
      },
      "geometry": {
        "type": "Point",
        "coordinates": [
          -135.18041686327706,
          -2.095130291149859
        ]
      }
    },
    {
      "type": "Feature",
      "properties": {
        "norad_id": 66632,
        "name": "STARLINK-35973",
        "group": "last-30-days",
        "lat": -0.32266383397579446,
        "lon": -133.85554044870466,
        "alt_km": 329.52503930528474,
        "timestamp": "2025-12-04T17:48:38.964835+00:00",
        "meta_object_name": "STARLINK-35973",
        "meta_object_id": "2025-271R",
        "meta_epoch": "2025-12-04T07:11:45.966048",
        "meta_mean_motion": 15.81738935,
        "meta_eccentricity": 0.00035675,
        "meta_inclination": 53.1565,
        "meta_ra_of_asc_node": 228.606,
        "meta_arg_of_pericenter": 219.2368,
        "meta_mean_anomaly": 140.8397,
        "meta_ephemeris_type": 0,
        "meta_classification_type": "U",
        "meta_norad_cat_id": 66632,
        "meta_element_set_no": 999,
        "meta_rev_at_epoch": 284,
        "meta_bstar": -0.002324746,
        "meta_mean_motion_dot": -0.0045453,
        "meta_mean_motion_ddot": 0,
        "tle_line1": "1 66632U 25271R   25338.29983757 -.00454530  00000+0 -23247-2 0  9993",
        "tle_line2": "2 66632  53.1565 228.6060 0003567 219.2368 140.8397 15.81738935  2842"
      },
      "geometry": {
        "type": "Point",
        "coordinates": [
          -133.85554044870466,
          -0.32266383397579446
        ]
      }
    },
    {
      "type": "Feature",
      "properties": {
        "norad_id": 66633,
        "name": "STARLINK-35948",
        "group": "last-30-days",
        "lat": 1.9086458845784304,
        "lon": -132.1878137122162,
        "alt_km": 325.1490162822938,
        "timestamp": "2025-12-04T17:48:38.964845+00:00",
        "meta_object_name": "STARLINK-35948",
        "meta_object_id": "2025-271S",
        "meta_epoch": "2025-12-04T07:11:12.702912",
        "meta_mean_motion": 15.81911377,
        "meta_eccentricity": 0.00017387,
        "meta_inclination": 53.156,
        "meta_ra_of_asc_node": 228.6031,
        "meta_arg_of_pericenter": 302.1786,
        "meta_mean_anomaly": 57.9069,
        "meta_ephemeris_type": 0,
        "meta_classification_type": "U",
        "meta_norad_cat_id": 66633,
        "meta_element_set_no": 999,
        "meta_rev_at_epoch": 288,
        "meta_bstar": -9.8824794e-05,
        "meta_mean_motion_dot": -0.0002113,
        "meta_mean_motion_ddot": 0,
        "tle_line1": "1 66633U 25271S   25338.29945258 -.00021130  00000+0 -98825-4 0  9990",
        "tle_line2": "2 66633  53.1560 228.6031 0001738 302.1786  57.9069 15.81911377  2881"
      },
      "geometry": {
        "type": "Point",
        "coordinates": [
          -132.1878137122162,
          1.9086458845784304
        ]
      }
    },
    {
      "type": "Feature",
      "properties": {
        "norad_id": 66634,
        "name": "STARLINK-35967",
        "group": "last-30-days",
        "lat": 3.9115481677197055,
        "lon": -130.68613296528318,
        "alt_km": 323.60812381972755,
        "timestamp": "2025-12-04T17:48:38.964855+00:00",
        "meta_object_name": "STARLINK-35967",
        "meta_object_id": "2025-271T",
        "meta_epoch": "2025-12-04T07:10:41.911680",
        "meta_mean_motion": 15.82059785,
        "meta_eccentricity": 0.00027006,
        "meta_inclination": 53.156,
        "meta_ra_of_asc_node": 228.6005,
        "meta_arg_of_pericenter": 294.0222,
        "meta_mean_anomaly": 66.0519,
        "meta_ephemeris_type": 0,
        "meta_classification_type": "U",
        "meta_norad_cat_id": 66634,
        "meta_element_set_no": 999,
        "meta_rev_at_epoch": 284,
        "meta_bstar": 0.0014975784,
        "meta_mean_motion_dot": 0.00323533,
        "meta_mean_motion_ddot": 0,
        "tle_line1": "1 66634U 25271T   25338.29909620  .00323533  00000+0  14976-2 0  9997",
        "tle_line2": "2 66634  53.1560 228.6005 0002700 294.0222  66.0519 15.82059785  2841"
      },
      "geometry": {
        "type": "Point",
        "coordinates": [
          -130.68613296528318,
          3.9115481677197055
        ]
      }
    },
    {
      "type": "Feature",
      "properties": {
        "norad_id": 66635,
        "name": "STARLINK-35955",
        "group": "last-30-days",
        "lat": 6.895020043065961,
        "lon": -128.42980630299985,
        "alt_km": 317.93450344067605,
        "timestamp": "2025-12-04T17:48:38.964865+00:00",
        "meta_object_name": "STARLINK-35955",
        "meta_object_id": "2025-271U",
        "meta_epoch": "2025-12-04T04:08:02.562432",
        "meta_mean_motion": 15.81682042,
        "meta_eccentricity": 0.00049906,
        "meta_inclination": 53.1555,
        "meta_ra_of_asc_node": 229.232,
        "meta_arg_of_pericenter": 47.5506,
        "meta_mean_anomaly": 312.5938,
        "meta_ephemeris_type": 0,
        "meta_classification_type": "U",
        "meta_norad_cat_id": 66635,
        "meta_element_set_no": 999,
        "meta_rev_at_epoch": 286,
        "meta_bstar": 0.0075810547,
        "meta_mean_motion_dot": 0.0176083,
        "meta_mean_motion_ddot": 0,
        "tle_line1": "1 66635U 25271U   25338.17225188  .01760830  00000+0  75811-2 0  9996",
        "tle_line2": "2 66635  53.1555 229.2320 0004990  47.5506 312.5938 15.81682042  2865"
      },
      "geometry": {
        "type": "Point",
        "coordinates": [
          -128.42980630299985,
          6.895020043065961
        ]
      }
    },
    {
      "type": "Feature",
      "properties": {
        "norad_id": 66636,
        "name": "STARLINK-35968",
        "group": "last-30-days",
        "lat": 6.820458705564231,
        "lon": -128.48714977447065,
        "alt_km": 327.7432517886091,
        "timestamp": "2025-12-04T17:48:38.964875+00:00",
        "meta_object_name": "STARLINK-35968",
        "meta_object_id": "2025-271V",
        "meta_epoch": "2025-12-04T07:09:31.156128",
        "meta_mean_motion": 15.81743317,
        "meta_eccentricity": 0.00024153,
        "meta_inclination": 53.1559,
        "meta_ra_of_asc_node": 228.5949,
        "meta_arg_of_pericenter": 229.9805,
        "meta_mean_anomaly": 130.1006,
        "meta_ephemeris_type": 0,
        "meta_classification_type": "U",
        "meta_norad_cat_id": 66636,
        "meta_element_set_no": 999,
        "meta_rev_at_epoch": 288,
        "meta_bstar": -0.0020073107,
        "meta_mean_motion_dot": -0.00395108,
        "meta_mean_motion_ddot": 0,
        "tle_line1": "1 66636U 25271V   25338.29827727 -.00395108  00000+0 -20073-2 0  9990",
        "tle_line2": "2 66636  53.1559 228.5949 0002415 229.9805 130.1006 15.81743317  2882"
      },
      "geometry": {
        "type": "Point",
        "coordinates": [
          -128.48714977447065,
          6.820458705564231
        ]
      }
    },
    {
      "type": "Feature",
      "properties": {
        "norad_id": 66637,
        "name": "STARLINK-35953",
        "group": "last-30-days",
        "lat": 8.282640054896609,
        "lon": -127.36959885224157,
        "alt_km": 327.0595505766696,
        "timestamp": "2025-12-04T17:48:38.964887+00:00",
        "meta_object_name": "STARLINK-35953",
        "meta_object_id": "2025-271W",
        "meta_epoch": "2025-12-04T07:08:57.874848",
        "meta_mean_motion": 15.81619452,
        "meta_eccentricity": 2.41e-05,
        "meta_inclination": 53.1558,
        "meta_ra_of_asc_node": 228.5923,
        "meta_arg_of_pericenter": 357.6726,
        "meta_mean_anomaly": 2.4296,
        "meta_ephemeris_type": 0,
        "meta_classification_type": "U",
        "meta_norad_cat_id": 66637,
        "meta_element_set_no": 999,
        "meta_rev_at_epoch": 288,
        "meta_bstar": -0.0031565219,
        "meta_mean_motion_dot": -0.00602563,
        "meta_mean_motion_ddot": 0,
        "tle_line1": "1 66637U 25271W   25338.29789207 -.00602563  00000+0 -31565-2 0  9995",
        "tle_line2": "2 66637  53.1558 228.5923 0000241 357.6726   2.4296 15.81619452  2884"
      },
      "geometry": {
        "type": "Point",
        "coordinates": [
          -127.36959885224157,
          8.282640054896609
        ]
      }
    }
  ]
}